{"fetched_at":"2026-07-23T17:55:08.470Z","source":"https://celestrak.org/NORAD/elements/gp.php?GROUP=oneweb&FORMAT=JSON","constellation":"oneweb","records":[{"OBJECT_NAME":"ONEWEB-0545","OBJECT_ID":"2022-166F","EPOCH":"2026-07-23T03:30:03.682944","CLASSIFICATION_TYPE":"U","MEAN_MOTION":13.21834035,"ECCENTRICITY":0.00015738,"INCLINATION":87.9227,"RA_OF_ASC_NODE":236.8251,"ARG_OF_PERICENTER":91.8028,"MEAN_ANOMALY":268.3286,"EPHEMERIS_TYPE":0,"NORAD_CAT_ID":54647,"ELEMENT_SET_NO":999,"REV_AT_EPOCH":17625,"BSTAR":-0.00097376948,"MEAN_MOTION_DOT":-0.00000389,"MEAN_MOTION_DDOT":0},{"OBJECT_NAME":"ONEWEB-0580","OBJECT_ID":"2022-166G","EPOCH":"2026-07-23T02:53:45.008448","CLASSIFICATION_TYPE":"U","MEAN_MOTION":13.21819142,"ECCENTRICITY":0.00016387,"INCLINATION":87.9225,"RA_OF_ASC_NODE":236.829,"ARG_OF_PERICENTER":90.3007,"MEAN_ANOMALY":269.8315,"EPHEMERIS_TYPE":0,"NORAD_CAT_ID":54648,"ELEMENT_SET_NO":999,"REV_AT_EPOCH":17629,"BSTAR":0.0021414641,"MEAN_MOTION_DOT":0.00000897,"MEAN_MOTION_DDOT":0},{"OBJECT_NAME":"ONEWEB-0582","OBJECT_ID":"2022-166H","EPOCH":"2026-07-23T03:54:17.747424","CLASSIFICATION_TYPE":"U","MEAN_MOTION":13.21823802,"ECCENTRICITY":0.00015556,"INCLINATION":87.9232,"RA_OF_ASC_NODE":236.8137,"ARG_OF_PERICENTER":95.2892,"MEAN_ANOMALY":264.8419,"EPHEMERIS_TYPE":0,"NORAD_CAT_ID":54649,"ELEMENT_SET_NO":999,"REV_AT_EPOCH":17627,"BSTAR":-0.00020908569,"MEAN_MOTION_DOT":-7.3e-7,"MEAN_MOTION_DDOT":0},{"OBJECT_NAME":"ONEWEB-0583","OBJECT_ID":"2022-166J","EPOCH":"2026-07-23T07:49:16.797504","CLASSIFICATION_TYPE":"U","MEAN_MOTION":13.2182563,"ECCENTRICITY":0.00019028,"INCLINATION":87.923,"RA_OF_ASC_NODE":236.8045,"ARG_OF_PERICENTER":95.1813,"MEAN_ANOMALY":264.9538,"EPHEMERIS_TYPE":0,"NORAD_CAT_ID":54650,"ELEMENT_SET_NO":999,"REV_AT_EPOCH":17630,"BSTAR":-0.000017698757,"MEAN_MOTION_DOT":6e-8,"MEAN_MOTION_DDOT":0},{"OBJECT_NAME":"ONEWEB-0584","OBJECT_ID":"2022-166K","EPOCH":"2026-07-23T02:51:19.811520","CLASSIFICATION_TYPE":"U","MEAN_MOTION":13.21824927,"ECCENTRICITY":0.00020071,"INCLINATION":87.9225,"RA_OF_ASC_NODE":236.8302,"ARG_OF_PERICENTER":93.2054,"MEAN_ANOMALY":266.931,"EPHEMERIS_TYPE":0,"NORAD_CAT_ID":54651,"ELEMENT_SET_NO":999,"REV_AT_EPOCH":17626,"BSTAR":0.00023283814,"MEAN_MOTION_DOT":0.00000109,"MEAN_MOTION_DDOT":0},{"OBJECT_NAME":"ONEWEB-0585","OBJECT_ID":"2022-166L","EPOCH":"2026-07-23T03:25:14.172096","CLASSIFICATION_TYPE":"U","MEAN_MOTION":13.21824137,"ECCENTRICITY":0.00022306,"INCLINATION":87.923,"RA_OF_ASC_NODE":236.8136,"ARG_OF_PERICENTER":95.6697,"MEAN_ANOMALY":264.4691,"EPHEMERIS_TYPE":0,"NORAD_CAT_ID":54652,"ELEMENT_SET_NO":999,"REV_AT_EPOCH":17627,"BSTAR":-0.00010900497,"MEAN_MOTION_DOT":-3.2e-7,"MEAN_MOTION_DDOT":0},{"OBJECT_NAME":"ONEWEB-0586","OBJECT_ID":"2022-166M","EPOCH":"2026-07-23T03:44:37.188672","CLASSIFICATION_TYPE":"U","MEAN_MOTION":13.21824533,"ECCENTRICITY":0.00018879,"INCLINATION":87.9224,"RA_OF_ASC_NODE":236.8357,"ARG_OF_PERICENTER":100.5951,"MEAN_ANOMALY":259.5396,"EPHEMERIS_TYPE":0,"NORAD_CAT_ID":54653,"ELEMENT_SET_NO":999,"REV_AT_EPOCH":17627,"BSTAR":-0.000013268887,"MEAN_MOTION_DOT":8e-8,"MEAN_MOTION_DDOT":0},{"OBJECT_NAME":"ONEWEB-0587","OBJECT_ID":"2022-166N","EPOCH":"2026-07-23T07:37:10.254720","CLASSIFICATION_TYPE":"U","MEAN_MOTION":13.21826287,"ECCENTRICITY":0.00024228,"INCLINATION":87.9239,"RA_OF_ASC_NODE":236.7812,"ARG_OF_PERICENTER":94.7147,"MEAN_ANOMALY":265.4264,"EPHEMERIS_TYPE":0,"NORAD_CAT_ID":54654,"ELEMENT_SET_NO":999,"REV_AT_EPOCH":17645,"BSTAR":0.000027591485,"MEAN_MOTION_DOT":2.4e-7,"MEAN_MOTION_DDOT":0},{"OBJECT_NAME":"ONEWEB-0589","OBJECT_ID":"2022-166P","EPOCH":"2026-07-23T03:39:47.109312","CLASSIFICATION_TYPE":"U","MEAN_MOTION":13.21825173,"ECCENTRICITY":0.00011906,"INCLINATION":87.9227,"RA_OF_ASC_NODE":236.8217,"ARG_OF_PERICENTER":87.7709,"MEAN_ANOMALY":272.3561,"EPHEMERIS_TYPE":0,"NORAD_CAT_ID":54655,"ELEMENT_SET_NO":999,"REV_AT_EPOCH":17629,"BSTAR":0.000015561505,"MEAN_MOTION_DOT":1.9e-7,"MEAN_MOTION_DDOT":0},{"OBJECT_NAME":"ONEWEB-0590","OBJECT_ID":"2022-166Q","EPOCH":"2026-07-23T02:26:53.442816","CLASSIFICATION_TYPE":"U","MEAN_MOTION":13.21826598,"ECCENTRICITY":0.00021186,"INCLINATION":87.9236,"RA_OF_ASC_NODE":236.8254,"ARG_OF_PERICENTER":82.6223,"MEAN_ANOMALY":277.5152,"EPHEMERIS_TYPE":0,"NORAD_CAT_ID":54656,"ELEMENT_SET_NO":999,"REV_AT_EPOCH":17627,"BSTAR":0.000022140579,"MEAN_MOTION_DOT":2.2e-7,"MEAN_MOTION_DDOT":0},{"OBJECT_NAME":"ONEWEB-0591","OBJECT_ID":"2022-166R","EPOCH":"2026-07-23T02:44:02.837472","CLASSIFICATION_TYPE":"U","MEAN_MOTION":13.21824896,"ECCENTRICITY":0.00020123,"INCLINATION":87.9226,"RA_OF_ASC_NODE":236.8346,"ARG_OF_PERICENTER":93.0326,"MEAN_ANOMALY":267.1038,"EPHEMERIS_TYPE":0,"NORAD_CAT_ID":54657,"ELEMENT_SET_NO":999,"REV_AT_EPOCH":17630,"BSTAR":0.00028228305,"MEAN_MOTION_DOT":0.0000013,"MEAN_MOTION_DDOT":0},{"OBJECT_NAME":"ONEWEB-0592","OBJECT_ID":"2022-166S","EPOCH":"2026-07-23T02:48:54.575712","CLASSIFICATION_TYPE":"U","MEAN_MOTION":13.21824825,"ECCENTRICITY":0.00020746,"INCLINATION":87.9233,"RA_OF_ASC_NODE":236.8152,"ARG_OF_PERICENTER":95.6415,"MEAN_ANOMALY":264.4956,"EPHEMERIS_TYPE":0,"NORAD_CAT_ID":54658,"ELEMENT_SET_NO":999,"REV_AT_EPOCH":17618,"BSTAR":0.00015564195,"MEAN_MOTION_DOT":7.7e-7,"MEAN_MOTION_DDOT":0},{"OBJECT_NAME":"ONEWEB-0593","OBJECT_ID":"2022-166T","EPOCH":"2026-07-23T03:20:23.571744","CLASSIFICATION_TYPE":"U","MEAN_MOTION":13.218264,"ECCENTRICITY":0.00019255,"INCLINATION":87.9227,"RA_OF_ASC_NODE":236.82,"ARG_OF_PERICENTER":98.3502,"MEAN_ANOMALY":261.785,"EPHEMERIS_TYPE":0,"NORAD_CAT_ID":54659,"ELEMENT_SET_NO":999,"REV_AT_EPOCH":17629,"BSTAR":0.000051204946,"MEAN_MOTION_DOT":3.4e-7,"MEAN_MOTION_DDOT":0},{"OBJECT_NAME":"ONEWEB-0594","OBJECT_ID":"2022-166U","EPOCH":"2026-07-23T02:00:27.886176","CLASSIFICATION_TYPE":"U","MEAN_MOTION":13.21824076,"ECCENTRICITY":0.00021942,"INCLINATION":87.9227,"RA_OF_ASC_NODE":236.847,"ARG_OF_PERICENTER":97.4667,"MEAN_ANOMALY":262.6716,"EPHEMERIS_TYPE":0,"NORAD_CAT_ID":54660,"ELEMENT_SET_NO":999,"REV_AT_EPOCH":17630,"BSTAR":0.000055209114,"MEAN_MOTION_DOT":3.6e-7,"MEAN_MOTION_DDOT":0},{"OBJECT_NAME":"ONEWEB-0595","OBJECT_ID":"2022-166V","EPOCH":"2026-07-23T03:15:33.683328","CLASSIFICATION_TYPE":"U","MEAN_MOTION":13.21826037,"ECCENTRICITY":0.00022815,"INCLINATION":87.9236,"RA_OF_ASC_NODE":236.8203,"ARG_OF_PERICENTER":92.8721,"MEAN_ANOMALY":267.2674,"EPHEMERIS_TYPE":0,"NORAD_CAT_ID":54661,"ELEMENT_SET_NO":999,"REV_AT_EPOCH":17628,"BSTAR":0.00011783075,"MEAN_MOTION_DOT":6.2e-7,"MEAN_MOTION_DDOT":0},{"OBJECT_NAME":"ONEWEB-0596","OBJECT_ID":"2022-166W","EPOCH":"2026-07-23T02:39:13.089888","CLASSIFICATION_TYPE":"U","MEAN_MOTION":13.21824384,"ECCENTRICITY":0.00021403,"INCLINATION":87.9228,"RA_OF_ASC_NODE":236.8343,"ARG_OF_PERICENTER":94.7046,"MEAN_ANOMALY":265.4332,"EPHEMERIS_TYPE":0,"NORAD_CAT_ID":54662,"ELEMENT_SET_NO":999,"REV_AT_EPOCH":17628,"BSTAR":0.000070790757,"MEAN_MOTION_DOT":4.2e-7,"MEAN_MOTION_DDOT":0}]}
